[
  {
    "OBJECT_NAME": "STARLINK-37260",
    "OBJECT_ID": "2026-068C",
    "EPOCH": "2026-04-17T04:00:26.061984",
    "MEAN_MOTION": 15.80964062,
    "ECCENTRICITY": 4.334e-05,
    "INCLINATION": 53.1577,
    "RA_OF_ASC_NODE": 316.4801,
    "ARG_OF_PERICENTER": 104.0565,
    "MEAN_ANOMALY": 256.0505,
    "EPHEMERIS_TYPE": 0,
    "CLASSIFICATION_TYPE": "U",
    "NORAD_CAT_ID": 68510,
    "ELEMENT_SET_NO": 999,
    "REV_AT_EPOCH": 275,
    "BSTAR": 0.0011435127,
    "MEAN_MOTION_DOT": 0.00232143,
    "MEAN_MOTION_DDOT": 0
  },
  {
    "OBJECT_NAME": "STARLINK-37280",
    "OBJECT_ID": "2026-068D",
    "EPOCH": "2026-04-17T07:01:25.763520",
    "MEAN_MOTION": 15.80930204,
    "ECCENTRICITY": 0.00010046,
    "INCLINATION": 53.1577,
    "RA_OF_ASC_NODE": 315.8412,
    "ARG_OF_PERICENTER": 68.1211,
    "MEAN_ANOMALY": 291.9919,
    "EPHEMERIS_TYPE": 0,
    "CLASSIFICATION_TYPE": "U",
    "NORAD_CAT_ID": 68511,
    "ELEMENT_SET_NO": 999,
    "REV_AT_EPOCH": 277,
    "BSTAR": 0.00097941503,
    "MEAN_MOTION_DOT": 0.00197613,
    "MEAN_MOTION_DDOT": 0
  },
  {
    "OBJECT_NAME": "STARLINK-37286",
    "OBJECT_ID": "2026-068E",
    "EPOCH": "2026-04-17T03:58:15.977280",
    "MEAN_MOTION": 15.81031601,
    "ECCENTRICITY": 0.00012743,
    "INCLINATION": 53.1579,
    "RA_OF_ASC_NODE": 316.4703,
    "ARG_OF_PERICENTER": 61.2378,
    "MEAN_ANOMALY": 298.8772,
    "EPHEMERIS_TYPE": 0,
    "CLASSIFICATION_TYPE": "U",
    "NORAD_CAT_ID": 68512,
    "ELEMENT_SET_NO": 999,
    "REV_AT_EPOCH": 275,
    "BSTAR": 0.0015811156,
    "MEAN_MOTION_DOT": 0.00325798,
    "MEAN_MOTION_DDOT": 0
  },
  {
    "OBJECT_NAME": "STARLINK-36250",
    "OBJECT_ID": "2026-068F",
    "EPOCH": "2026-04-17T03:57:11.340576",
    "MEAN_MOTION": 15.80983655,
    "ECCENTRICITY": 7.669e-05,
    "INCLINATION": 53.1577,
    "RA_OF_ASC_NODE": 316.4652,
    "ARG_OF_PERICENTER": 85.7899,
    "MEAN_ANOMALY": 274.3211,
    "EPHEMERIS_TYPE": 0,
    "CLASSIFICATION_TYPE": "U",
    "NORAD_CAT_ID": 68513,
    "ELEMENT_SET_NO": 999,
    "REV_AT_EPOCH": 275,
    "BSTAR": 0.0011529299,
    "MEAN_MOTION_DOT": 0.00234329,
    "MEAN_MOTION_DDOT": 0
  },
  {
    "OBJECT_NAME": "STARLINK-37251",
    "OBJECT_ID": "2026-068G",
    "EPOCH": "2026-04-17T06:58:11.260704",
    "MEAN_MOTION": 15.80930161,
    "ECCENTRICITY": 0.000112,
    "INCLINATION": 53.1579,
    "RA_OF_ASC_NODE": 315.8264,
    "ARG_OF_PERICENTER": 71.9215,
    "MEAN_ANOMALY": 288.1929,
    "EPHEMERIS_TYPE": 0,
    "CLASSIFICATION_TYPE": "U",
    "NORAD_CAT_ID": 68514,
    "ELEMENT_SET_NO": 999,
    "REV_AT_EPOCH": 277,
    "BSTAR": 0.00089836951,
    "MEAN_MOTION_DOT": 0.00180847,
    "MEAN_MOTION_DDOT": 0
  },
  {
    "OBJECT_NAME": "STARLINK-36293",
    "OBJECT_ID": "2026-068H",
    "EPOCH": "2026-04-17T06:57:06.458112",
    "MEAN_MOTION": 15.8094149,
    "ECCENTRICITY": 0.00010418,
    "INCLINATION": 53.1579,
    "RA_OF_ASC_NODE": 315.8216,
    "ARG_OF_PERICENTER": 83.77,
    "MEAN_ANOMALY": 276.3442,
    "EPHEMERIS_TYPE": 0,
    "CLASSIFICATION_TYPE": "U",
    "NORAD_CAT_ID": 68515,
    "ELEMENT_SET_NO": 999,
    "REV_AT_EPOCH": 277,
    "BSTAR": 0.00098849699,
    "MEAN_MOTION_DOT": 0.00199602,
    "MEAN_MOTION_DDOT": 0
  },
  {
    "OBJECT_NAME": "STARLINK-36290",
    "OBJECT_ID": "2026-068J",
    "EPOCH": "2026-04-17T03:53:57.250752",
    "MEAN_MOTION": 15.80963085,
    "ECCENTRICITY": 7.427e-05,
    "INCLINATION": 53.1581,
    "RA_OF_ASC_NODE": 316.4504,
    "ARG_OF_PERICENTER": 78.0335,
    "MEAN_ANOMALY": 282.0771,
    "EPHEMERIS_TYPE": 0,
    "CLASSIFICATION_TYPE": "U",
    "NORAD_CAT_ID": 68516,
    "ELEMENT_SET_NO": 999,
    "REV_AT_EPOCH": 275,
    "BSTAR": 0.00064016652,
    "MEAN_MOTION_DOT": 0.00128071,
    "MEAN_MOTION_DDOT": 0
  },
  {
    "OBJECT_NAME": "STARLINK-36298",
    "OBJECT_ID": "2026-068K",
    "EPOCH": "2026-04-17T06:54:56.839968",
    "MEAN_MOTION": 15.8093716,
    "ECCENTRICITY": 0.00011466,
    "INCLINATION": 53.1579,
    "RA_OF_ASC_NODE": 315.8114,
    "ARG_OF_PERICENTER": 59.0161,
    "MEAN_ANOMALY": 301.0975,
    "EPHEMERIS_TYPE": 0,
    "CLASSIFICATION_TYPE": "U",
    "NORAD_CAT_ID": 68517,
    "ELEMENT_SET_NO": 999,
    "REV_AT_EPOCH": 277,
    "BSTAR": 0.0010087252,
    "MEAN_MOTION_DOT": 0.0020376,
    "MEAN_MOTION_DDOT": 0
  },
  {
    "OBJECT_NAME": "STARLINK-36857",
    "OBJECT_ID": "2026-068L",
    "EPOCH": "2026-04-17T06:52:47.195904",
    "MEAN_MOTION": 15.80934819,
    "ECCENTRICITY": 9.747e-05,
    "INCLINATION": 53.1578,
    "RA_OF_ASC_NODE": 315.8016,
    "ARG_OF_PERICENTER": 66.5579,
    "MEAN_ANOMALY": 293.5546,
    "EPHEMERIS_TYPE": 0,
    "CLASSIFICATION_TYPE": "U",
    "NORAD_CAT_ID": 68518,
    "ELEMENT_SET_NO": 999,
    "REV_AT_EPOCH": 277,
    "BSTAR": 0.00096034878,
    "MEAN_MOTION_DOT": 0.00193705,
    "MEAN_MOTION_DDOT": 0
  },
  {
    "OBJECT_NAME": "STARLINK-36326",
    "OBJECT_ID": "2026-068M",
    "EPOCH": "2026-04-17T06:53:52.600704",
    "MEAN_MOTION": 15.80976686,
    "ECCENTRICITY": 0.00021049,
    "INCLINATION": 53.1576,
    "RA_OF_ASC_NODE": 315.8064,
    "ARG_OF_PERICENTER": 65.961,
    "MEAN_ANOMALY": 294.1633,
    "EPHEMERIS_TYPE": 0,
    "CLASSIFICATION_TYPE": "U",
    "NORAD_CAT_ID": 68519,
    "ELEMENT_SET_NO": 999,
    "REV_AT_EPOCH": 277,
    "BSTAR": 0.0015788322,
    "MEAN_MOTION_DOT": 0.00324452,
    "MEAN_MOTION_DDOT": 0
  },
  {
    "OBJECT_NAME": "STARLINK-37126",
    "OBJECT_ID": "2026-068N",
    "EPOCH": "2026-04-17T06:51:42.937632",
    "MEAN_MOTION": 15.80976577,
    "ECCENTRICITY": 0.00019249,
    "INCLINATION": 53.1577,
    "RA_OF_ASC_NODE": 315.7963,
    "ARG_OF_PERICENTER": 70.4336,
    "MEAN_ANOMALY": 289.6894,
    "EPHEMERIS_TYPE": 0,
    "CLASSIFICATION_TYPE": "U",
    "NORAD_CAT_ID": 68520,
    "ELEMENT_SET_NO": 999,
    "REV_AT_EPOCH": 277,
    "BSTAR": 0.0015821856,
    "MEAN_MOTION_DOT": 0.00325167,
    "MEAN_MOTION_DDOT": 0
  },
  {
    "OBJECT_NAME": "STARLINK-36347",
    "OBJECT_ID": "2026-068P",
    "EPOCH": "2026-04-17T03:48:33.122880",
    "MEAN_MOTION": 15.80943989,
    "ECCENTRICITY": 0.0001006,
    "INCLINATION": 53.1585,
    "RA_OF_ASC_NODE": 316.4256,
    "ARG_OF_PERICENTER": 47.5423,
    "MEAN_ANOMALY": 312.5684,
    "EPHEMERIS_TYPE": 0,
    "CLASSIFICATION_TYPE": "U",
    "NORAD_CAT_ID": 68521,
    "ELEMENT_SET_NO": 999,
    "REV_AT_EPOCH": 275,
    "BSTAR": 0.00080879219,
    "MEAN_MOTION_DOT": 0.001625,
    "MEAN_MOTION_DDOT": 0
  },
  {
    "OBJECT_NAME": "STARLINK-36322",
    "OBJECT_ID": "2026-068Q",
    "EPOCH": "2026-04-17T03:47:28.312512",
    "MEAN_MOTION": 15.80956248,
    "ECCENTRICITY": 5.041e-05,
    "INCLINATION": 53.158,
    "RA_OF_ASC_NODE": 316.4204,
    "ARG_OF_PERICENTER": 77.776,
    "MEAN_ANOMALY": 282.3319,
    "EPHEMERIS_TYPE": 0,
    "CLASSIFICATION_TYPE": "U",
    "NORAD_CAT_ID": 68522,
    "ELEMENT_SET_NO": 999,
    "REV_AT_EPOCH": 275,
    "BSTAR": 0.0010114908,
    "MEAN_MOTION_DOT": 0.00204522,
    "MEAN_MOTION_DDOT": 0
  },
  {
    "OBJECT_NAME": "STARLINK-37208",
    "OBJECT_ID": "2026-068R",
    "EPOCH": "2026-04-16T23:13:17.268672",
    "MEAN_MOTION": 15.80945148,
    "ECCENTRICITY": 9.13e-05,
    "INCLINATION": 53.1583,
    "RA_OF_ASC_NODE": 317.3656,
    "ARG_OF_PERICENTER": 62.7717,
    "MEAN_ANOMALY": 297.3398,
    "EPHEMERIS_TYPE": 0,
    "CLASSIFICATION_TYPE": "U",
    "NORAD_CAT_ID": 68523,
    "ELEMENT_SET_NO": 999,
    "REV_AT_EPOCH": 272,
    "BSTAR": 0.0011018691,
    "MEAN_MOTION_DOT": 0.0022323,
    "MEAN_MOTION_DDOT": 0
  }
]