STARLINK-37260          
1 68510U 26068C   26107.16696831  .00232143  00000+0  11435-2 0  9998
2 68510  53.1577 316.4801 0000433 104.0565 256.0505 15.80964062  2752
STARLINK-37280          
1 68511U 26068D   26107.29265930  .00197613  00000+0  97942-3 0  9995
2 68511  53.1577 315.8412 0001004  68.1211 291.9919 15.80930204  2777
STARLINK-37286          
1 68512U 26068E   26107.16546270  .00325798  00000+0  15811-2 0  9992
2 68512  53.1579 316.4703 0001274  61.2378 298.8772 15.81031601  2752
STARLINK-36250          
1 68513U 26068F   26107.16471459  .00234329  00000+0  11529-2 0  9990
2 68513  53.1577 316.4652 0000766  85.7899 274.3211 15.80983655  2759
STARLINK-37251          
1 68514U 26068G   26107.29040811  .00180847  00000+0  89837-3 0  9992
2 68514  53.1579 315.8264 0001120  71.9215 288.1929 15.80930161  2773
STARLINK-36293          
1 68515U 26068H   26107.28965808  .00199602  00000+0  98850-3 0  9998
2 68515  53.1579 315.8216 0001041  83.7700 276.3442 15.80941490  2779
STARLINK-36290          
1 68516U 26068J   26107.16246818  .00128071  00000+0  64017-3 0  9999
2 68516  53.1581 316.4504 0000742  78.0335 282.0771 15.80963085  2759
STARLINK-36298          
1 68517U 26068K   26107.28815787  .00203760  00000+0  10087-2 0  9996
2 68517  53.1579 315.8114 0001146  59.0161 301.0975 15.80937160  2777
STARLINK-36857          
1 68518U 26068L   26107.28665736  .00193705  00000+0  96035-3 0  9999
2 68518  53.1578 315.8016 0000974  66.5579 293.5546 15.80934819  2779
STARLINK-36326          
1 68519U 26068M   26107.28741436  .00324452  00000+0  15788-2 0  9992
2 68519  53.1576 315.8064 0002104  65.9610 294.1633 15.80976686  2779
STARLINK-37126          
1 68520U 26068N   26107.28591363  .00325167  00000+0  15822-2 0  9999
2 68520  53.1577 315.7963 0001924  70.4336 289.6894 15.80976577  2771
STARLINK-36347          
1 68521U 26068P   26107.15871670  .00162500  00000+0  80879-3 0  9993
2 68521  53.1585 316.4256 0001006  47.5423 312.5684 15.80943989  2759
STARLINK-36322          
1 68522U 26068Q   26107.15796658  .00204522  00000+0  10115-2 0  9992
2 68522  53.1580 316.4204 0000504  77.7760 282.3319 15.80956248  2750
STARLINK-37208          
1 68523U 26068R   26106.96756098  .00223230  00000+0  11019-2 0  9996
2 68523  53.1583 317.3656 0000913  62.7717 297.3398 15.80945148  2722
